[
  {
    "OBJECT_NAME": "STARLINK-3941",
    "OBJECT_ID": "22052AS",
    "EPOCH": "2025-11-11T01:33:26.828640",
    "MEAN_MOTION": 15.08866836,
    "ECCENTRICITY": 0.0001075,
    "INCLINATION": 53.2155,
    "RA_OF_ASC_NODE": 81.6439,
    "ARG_OF_PERICENTER": 87.8717,
    "MEAN_ANOMALY": 272.2398,
    "EPHEMERIS_TYPE": 0,
    "CLASSIFICATION_TYPE": "U",
    "NORAD_CAT_ID": 52638,
    "ELEMENT_SET_NO": 999,
    "REV_AT_EPOCH": 19389,
    "BSTAR": 0.00011057000000000001,
    "MEAN_MOTION_DOT": 1.474e-05,
    "MEAN_MOTION_DDOT": 0.0,
    "TLE_LINE1": "1 52638U 22052AS  25315.06489385  .00001474  00000+0  11057-3 0  9996",
    "TLE_LINE2": "2 52638  53.2155  81.6439 0001075  87.8717 272.2398 15.08866836193893",
    "COMMENT": "Grouped by shell and plane from TLE"
  },
  {
    "OBJECT_NAME": "STARLINK-4722",
    "OBJECT_ID": "22111C",
    "EPOCH": "2025-11-10T15:52:35.938848",
    "MEAN_MOTION": 15.0884088,
    "ECCENTRICITY": 0.0001393,
    "INCLINATION": 53.216,
    "RA_OF_ASC_NODE": 88.6911,
    "ARG_OF_PERICENTER": 90.129,
    "MEAN_ANOMALY": 269.9862,
    "EPHEMERIS_TYPE": 0,
    "CLASSIFICATION_TYPE": "U",
    "NORAD_CAT_ID": 53775,
    "ELEMENT_SET_NO": 999,
    "REV_AT_EPOCH": 17572,
    "BSTAR": 8.54e-05,
    "MEAN_MOTION_DOT": 1.071e-05,
    "MEAN_MOTION_DDOT": 0.0,
    "TLE_LINE1": "1 53775U 22111C   25314.66152707  .00001071  00000+0  85400-4 0  9992",
    "TLE_LINE2": "2 53775  53.2160  88.6911 0001393  90.1290 269.9862 15.08840880175722",
    "COMMENT": "Grouped by shell and plane from TLE"
  },
  {
    "OBJECT_NAME": "STARLINK-4664",
    "OBJECT_ID": "22111E",
    "EPOCH": "2025-11-10T15:41:58.661952",
    "MEAN_MOTION": 15.08845219,
    "ECCENTRICITY": 0.0001386,
    "INCLINATION": 53.2132,
    "RA_OF_ASC_NODE": 88.6456,
    "ARG_OF_PERICENTER": 86.3139,
    "MEAN_ANOMALY": 273.8011,
    "EPHEMERIS_TYPE": 0,
    "CLASSIFICATION_TYPE": "U",
    "NORAD_CAT_ID": 53777,
    "ELEMENT_SET_NO": 999,
    "REV_AT_EPOCH": 17572,
    "BSTAR": 2.8711e-05,
    "MEAN_MOTION_DOT": 1.69e-06,
    "MEAN_MOTION_DDOT": 0.0,
    "TLE_LINE1": "1 53777U 22111E   25314.65415118  .00000169  00000+0  28711-4 0  9990",
    "TLE_LINE2": "2 53777  53.2132  88.6456 0001386  86.3139 273.8011 15.08845219175729",
    "COMMENT": "Grouped by shell and plane from TLE"
  },
  {
    "OBJECT_NAME": "STARLINK-4706",
    "OBJECT_ID": "22111G",
    "EPOCH": "2025-11-10T15:36:40.966560",
    "MEAN_MOTION": 15.08829431,
    "ECCENTRICITY": 0.0001373,
    "INCLINATION": 53.2165,
    "RA_OF_ASC_NODE": 88.6228,
    "ARG_OF_PERICENTER": 86.6814,
    "MEAN_ANOMALY": 273.4335,
    "EPHEMERIS_TYPE": 0,
    "CLASSIFICATION_TYPE": "U",
    "NORAD_CAT_ID": 53779,
    "ELEMENT_SET_NO": 999,
    "REV_AT_EPOCH": 17572,
    "BSTAR": 0.00014151,
    "MEAN_MOTION_DOT": 1.964e-05,
    "MEAN_MOTION_DDOT": 0.0,
    "TLE_LINE1": "1 53779U 22111G   25314.65047415  .00001964  00000+0  14151-3 0  9999",
    "TLE_LINE2": "2 53779  53.2165  88.6228 0001373  86.6814 273.4335 15.08829431175726",
    "COMMENT": "Grouped by shell and plane from TLE"
  },
  {
    "OBJECT_NAME": "STARLINK-4678",
    "OBJECT_ID": "22111H",
    "EPOCH": "2025-11-11T07:41:08.540736",
    "MEAN_MOTION": 15.08841748,
    "ECCENTRICITY": 0.0001445,
    "INCLINATION": 53.215,
    "RA_OF_ASC_NODE": 85.6969,
    "ARG_OF_PERICENTER": 89.7046,
    "MEAN_ANOMALY": 270.4111,
    "EPHEMERIS_TYPE": 0,
    "CLASSIFICATION_TYPE": "U",
    "NORAD_CAT_ID": 53780,
    "ELEMENT_SET_NO": 999,
    "REV_AT_EPOCH": 17582,
    "BSTAR": 8.087800000000001e-05,
    "MEAN_MOTION_DOT": 1e-05,
    "MEAN_MOTION_DDOT": 0.0,
    "TLE_LINE1": "1 53780U 22111H   25315.32023774  .00001000  00000+0  80878-4 0  9999",
    "TLE_LINE2": "2 53780  53.2150  85.6969 0001445  89.7046 270.4111 15.08841748175827",
    "COMMENT": "Grouped by shell and plane from TLE"
  },
  {
    "OBJECT_NAME": "STARLINK-4462",
    "OBJECT_ID": "22111J",
    "EPOCH": "2025-11-11T02:28:27.922080",
    "MEAN_MOTION": 15.0884232,
    "ECCENTRICITY": 0.0001238,
    "INCLINATION": 53.216,
    "RA_OF_ASC_NODE": 86.4747,
    "ARG_OF_PERICENTER": 91.0023,
    "MEAN_ANOMALY": 269.1111,
    "EPHEMERIS_TYPE": 0,
    "CLASSIFICATION_TYPE": "U",
    "NORAD_CAT_ID": 53781,
    "ELEMENT_SET_NO": 999,
    "REV_AT_EPOCH": 17579,
    "BSTAR": 0.0,
    "MEAN_MOTION_DOT": -8.71e-06,
    "MEAN_MOTION_DDOT": 0.0,
    "TLE_LINE1": "1 53781U 22111J   25315.10310095 -.00000871  00000+0 -36668-4 0  9996",
    "TLE_LINE2": "2 53781  53.2160  86.4747 0001238  91.0023 269.1111 15.08842320175791",
    "COMMENT": "Grouped by shell and plane from TLE"
  },
  {
    "OBJECT_NAME": "STARLINK-4679",
    "OBJECT_ID": "22111K",
    "EPOCH": "2025-11-10T15:31:22.415808",
    "MEAN_MOTION": 15.08845503,
    "ECCENTRICITY": 0.0001371,
    "INCLINATION": 53.2156,
    "RA_OF_ASC_NODE": 88.6002,
    "ARG_OF_PERICENTER": 86.5236,
    "MEAN_ANOMALY": 273.5913,
    "EPHEMERIS_TYPE": 0,
    "CLASSIFICATION_TYPE": "U",
    "NORAD_CAT_ID": 53782,
    "ELEMENT_SET_NO": 999,
    "REV_AT_EPOCH": 17572,
    "BSTAR": 0.00010344000000000001,
    "MEAN_MOTION_DOT": 1.359e-05,
    "MEAN_MOTION_DDOT": 0.0,
    "TLE_LINE1": "1 53782U 22111K   25314.64678722  .00001359  00000+0  10344-3 0  9991",
    "TLE_LINE2": "2 53782  53.2156  88.6002 0001371  86.5236 273.5913 15.08845503175726",
    "COMMENT": "Grouped by shell and plane from TLE"
  },
  {
    "OBJECT_NAME": "STARLINK-4536",
    "OBJECT_ID": "22111L",
    "EPOCH": "2025-11-11T02:17:51.013248",
    "MEAN_MOTION": 15.0884595,
    "ECCENTRICITY": 0.0001498,
    "INCLINATION": 53.2153,
    "RA_OF_ASC_NODE": 86.4272,
    "ARG_OF_PERICENTER": 95.2123,
    "MEAN_ANOMALY": 264.904,
    "EPHEMERIS_TYPE": 0,
    "CLASSIFICATION_TYPE": "U",
    "NORAD_CAT_ID": 53783,
    "ELEMENT_SET_NO": 999,
    "REV_AT_EPOCH": 17579,
    "BSTAR": 0.000108,
    "MEAN_MOTION_DOT": 1.431e-05,
    "MEAN_MOTION_DDOT": 0.0,
    "TLE_LINE1": "1 53783U 22111L   25315.09572932  .00001431  00000+0  10800-3 0  9996",
    "TLE_LINE2": "2 53783  53.2153  86.4272 0001498  95.2123 264.9040 15.08845950175799",
    "COMMENT": "Grouped by shell and plane from TLE"
  },
  {
    "OBJECT_NAME": "STARLINK-4687",
    "OBJECT_ID": "22111M",
    "EPOCH": "2025-11-11T02:33:45.645120",
    "MEAN_MOTION": 15.08842634,
    "ECCENTRICITY": 0.0001484,
    "INCLINATION": 53.2126,
    "RA_OF_ASC_NODE": 86.4948,
    "ARG_OF_PERICENTER": 94.5199,
    "MEAN_ANOMALY": 265.5963,
    "EPHEMERIS_TYPE": 0,
    "CLASSIFICATION_TYPE": "U",
    "NORAD_CAT_ID": 53784,
    "ELEMENT_SET_NO": 999,
    "REV_AT_EPOCH": 17579,
    "BSTAR": 3.3114e-05,
    "MEAN_MOTION_DOT": 2.39e-06,
    "MEAN_MOTION_DDOT": 0.0,
    "TLE_LINE1": "1 53784U 22111M   25315.10677830  .00000239  00000+0  33114-4 0  9991",
    "TLE_LINE2": "2 53784  53.2126  86.4948 0001484  94.5199 265.5963 15.08842634175797",
    "COMMENT": "Grouped by shell and plane from TLE"
  },
  {
    "OBJECT_NAME": "STARLINK-4743",
    "OBJECT_ID": "22111Q",
    "EPOCH": "2025-11-11T02:07:14.041344",
    "MEAN_MOTION": 15.08843047,
    "ECCENTRICITY": 0.0001291,
    "INCLINATION": 53.2179,
    "RA_OF_ASC_NODE": 86.3803,
    "ARG_OF_PERICENTER": 85.5202,
    "MEAN_ANOMALY": 274.5938,
    "EPHEMERIS_TYPE": 0,
    "CLASSIFICATION_TYPE": "U",
    "NORAD_CAT_ID": 53787,
    "ELEMENT_SET_NO": 999,
    "REV_AT_EPOCH": 17579,
    "BSTAR": 0.00015227,
    "MEAN_MOTION_DOT": 2.136e-05,
    "MEAN_MOTION_DDOT": 0.0,
    "TLE_LINE1": "1 53787U 22111Q   25315.08835696  .00002136  00000+0  15227-3 0  9999",
    "TLE_LINE2": "2 53787  53.2179  86.3803 0001291  85.5202 274.5938 15.08843047175799",
    "COMMENT": "Grouped by shell and plane from TLE"
  },
  {
    "OBJECT_NAME": "STARLINK-4666",
    "OBJECT_ID": "22111S",
    "EPOCH": "2025-11-10T09:57:28.483200",
    "MEAN_MOTION": 15.08832694,
    "ECCENTRICITY": 0.000115,
    "INCLINATION": 53.2176,
    "RA_OF_ASC_NODE": 89.2866,
    "ARG_OF_PERICENTER": 88.5538,
    "MEAN_ANOMALY": 271.5586,
    "EPHEMERIS_TYPE": 0,
    "CLASSIFICATION_TYPE": "U",
    "NORAD_CAT_ID": 53789,
    "ELEMENT_SET_NO": 999,
    "REV_AT_EPOCH": 17568,
    "BSTAR": 0.00046444000000000005,
    "MEAN_MOTION_DOT": 7.11e-05,
    "MEAN_MOTION_DDOT": 0.0,
    "TLE_LINE1": "1 53789U 22111S   25314.41491300  .00007110  00000+0  46444-3 0  9999",
    "TLE_LINE2": "2 53789  53.2176  89.2866 0001150  88.5538 271.5586 15.08832694175688",
    "COMMENT": "Grouped by shell and plane from TLE"
  },
  {
    "OBJECT_NAME": "STARLINK-4734",
    "OBJECT_ID": "22111T",
    "EPOCH": "2025-11-10T10:18:41.442912",
    "MEAN_MOTION": 15.0883886,
    "ECCENTRICITY": 0.0001138,
    "INCLINATION": 53.2135,
    "RA_OF_ASC_NODE": 89.3766,
    "ARG_OF_PERICENTER": 81.9636,
    "MEAN_ANOMALY": 278.1486,
    "EPHEMERIS_TYPE": 0,
    "CLASSIFICATION_TYPE": "U",
    "NORAD_CAT_ID": 53790,
    "ELEMENT_SET_NO": 999,
    "REV_AT_EPOCH": 17569,
    "BSTAR": 4.745e-05,
    "MEAN_MOTION_DOT": 4.67e-06,
    "MEAN_MOTION_DDOT": 0.0,
    "TLE_LINE1": "1 53790U 22111T   25314.42964633  .00000467  00000+0  47450-4 0  9993",
    "TLE_LINE2": "2 53790  53.2135  89.3766 0001138  81.9636 278.1486 15.08838860175691",
    "COMMENT": "Grouped by shell and plane from TLE"
  },
  {
    "OBJECT_NAME": "STARLINK-4739",
    "OBJECT_ID": "22111V",
    "EPOCH": "2025-11-11T01:42:12.523392",
    "MEAN_MOTION": 15.08841151,
    "ECCENTRICITY": 0.0001232,
    "INCLINATION": 53.2173,
    "RA_OF_ASC_NODE": 86.968,
    "ARG_OF_PERICENTER": 91.1402,
    "MEAN_ANOMALY": 268.9731,
    "EPHEMERIS_TYPE": 0,
    "CLASSIFICATION_TYPE": "U",
    "NORAD_CAT_ID": 53792,
    "ELEMENT_SET_NO": 999,
    "REV_AT_EPOCH": 17577,
    "BSTAR": 8.4752e-05,
    "MEAN_MOTION_DOT": 1.061e-05,
    "MEAN_MOTION_DDOT": 0.0,
    "TLE_LINE1": "1 53792U 22111V   25315.07097828  .00001061  00000+0  84752-4 0  9997",
    "TLE_LINE2": "2 53792  53.2173  86.9680 0001232  91.1402 268.9731 15.08841151175778",
    "COMMENT": "Grouped by shell and plane from TLE"
  }
]